[
  {
    "OBJECT_NAME": "YAOGAN-39 03B",
    "OBJECT_ID": "2023-152C",
    "EPOCH": "2023-10-19T05:45:25.975008",
    "MEAN_MOTION": 15.23756774,
    "ECCENTRICITY": 0.0005772,
    "INCLINATION": 34.9971,
    "RA_OF_ASC_NODE": 265.3754,
    "ARG_OF_PERICENTER": 34.8922,
    "MEAN_ANOMALY": 93.8351,
    "EPHEMERIS_TYPE": 0,
    "CLASSIFICATION_TYPE": "U",
    "NORAD_CAT_ID": 57988,
    "ELEMENT_SET_NO": 999,
    "REV_AT_EPOCH": 216,
    "BSTAR": 0.00070306,
    "MEAN_MOTION_DOT": 0.00017333,
    "MEAN_MOTION_DDOT": 0
  },
  {
    "OBJECT_NAME": "YAOGAN-39 03C",
    "OBJECT_ID": "2023-152E",
    "EPOCH": "2023-10-22T07:36:34.180128",
    "MEAN_MOTION": 15.23927622,
    "ECCENTRICITY": 0.0007983,
    "INCLINATION": 34.9962,
    "RA_OF_ASC_NODE": 245.9686,
    "ARG_OF_PERICENTER": 72.7317,
    "MEAN_ANOMALY": 54.9598,
    "EPHEMERIS_TYPE": 0,
    "CLASSIFICATION_TYPE": "U",
    "NORAD_CAT_ID": 57990,
    "ELEMENT_SET_NO": 999,
    "REV_AT_EPOCH": 260,
    "BSTAR": 0.00097865,
    "MEAN_MOTION_DOT": 0.00024298,
    "MEAN_MOTION_DDOT": 0
  },
  {
    "OBJECT_NAME": "STARLINK-30537",
    "OBJECT_ID": "2023-153A",
    "EPOCH": "2023-10-22T14:00:01.000224",
    "MEAN_MOTION": 15.74931443,
    "ECCENTRICITY": 0.0001696,
    "INCLINATION": 42.9994,
    "RA_OF_ASC_NODE": 127.9396,
    "ARG_OF_PERICENTER": 264.1886,
    "MEAN_ANOMALY": 124.841,
    "EPHEMERIS_TYPE": 0,
    "CLASSIFICATION_TYPE": "U",
    "NORAD_CAT_ID": 57991,
    "ELEMENT_SET_NO": 999,
    "REV_AT_EPOCH": 365,
    "BSTAR": -0.0049783,
    "MEAN_MOTION_DOT": -0.00701451,
    "MEAN_MOTION_DDOT": 0
  },
  {
    "OBJECT_NAME": "STARLINK-30534",
    "OBJECT_ID": "2023-153B",
    "EPOCH": "2023-10-22T14:00:01.000224",
    "MEAN_MOTION": 15.7503534,
    "ECCENTRICITY": 0.0001627,
    "INCLINATION": 42.9994,
    "RA_OF_ASC_NODE": 127.9422,
    "ARG_OF_PERICENTER": 269.4331,
    "MEAN_ANOMALY": 118.6569,
    "EPHEMERIS_TYPE": 0,
    "CLASSIFICATION_TYPE": "U",
    "NORAD_CAT_ID": 57992,
    "ELEMENT_SET_NO": 999,
    "REV_AT_EPOCH": 387,
    "BSTAR": -0.0048771,
    "MEAN_MOTION_DOT": -0.00691168,
    "MEAN_MOTION_DDOT": 0
  },
  {
    "OBJECT_NAME": "STARLINK-30536",
    "OBJECT_ID": "2023-153C",
    "EPOCH": "2023-10-22T14:00:01.000224",
    "MEAN_MOTION": 15.7481157,
    "ECCENTRICITY": 0.0001722,
    "INCLINATION": 42.9994,
    "RA_OF_ASC_NODE": 127.9373,
    "ARG_OF_PERICENTER": 268.2172,
    "MEAN_ANOMALY": 121.7519,
    "EPHEMERIS_TYPE": 0,
    "CLASSIFICATION_TYPE": "U",
    "NORAD_CAT_ID": 57993,
    "ELEMENT_SET_NO": 999,
    "REV_AT_EPOCH": 397,
    "BSTAR": -0.0050585,
    "MEAN_MOTION_DOT": -0.00708425,
    "MEAN_MOTION_DDOT": 0
  },
  {
    "OBJECT_NAME": "STARLINK-30538",
    "OBJECT_ID": "2023-153D",
    "EPOCH": "2023-10-22T14:00:01.000224",
    "MEAN_MOTION": 15.74689237,
    "ECCENTRICITY": 0.0001378,
    "INCLINATION": 42.9996,
    "RA_OF_ASC_NODE": 127.9338,
    "ARG_OF_PERICENTER": 268.7351,
    "MEAN_ANOMALY": 122.7584,
    "EPHEMERIS_TYPE": 0,
    "CLASSIFICATION_TYPE": "U",
    "NORAD_CAT_ID": 57994,
    "ELEMENT_SET_NO": 999,
    "REV_AT_EPOCH": 387,
    "BSTAR": -0.0051674,
    "MEAN_MOTION_DOT": -0.0071882,
    "MEAN_MOTION_DDOT": 0
  },
  {
    "OBJECT_NAME": "STARLINK-30517",
    "OBJECT_ID": "2023-153E",
    "EPOCH": "2023-10-22T14:00:01.000224",
    "MEAN_MOTION": 15.74567949,
    "ECCENTRICITY": 0.0001568,
    "INCLINATION": 42.9997,
    "RA_OF_ASC_NODE": 127.9315,
    "ARG_OF_PERICENTER": 267.1304,
    "MEAN_ANOMALY": 125.2239,
    "EPHEMERIS_TYPE": 0,
    "CLASSIFICATION_TYPE": "U",
    "NORAD_CAT_ID": 57995,
    "ELEMENT_SET_NO": 999,
    "REV_AT_EPOCH": 397,
    "BSTAR": -0.0052632,
    "MEAN_MOTION_DOT": -0.00727552,
    "MEAN_MOTION_DDOT": 0
  },
  {
    "OBJECT_NAME": "STARLINK-30543",
    "OBJECT_ID": "2023-153F",
    "EPOCH": "2023-10-22T14:00:01.000224",
    "MEAN_MOTION": 15.85401319,
    "ECCENTRICITY": 0.0005028,
    "INCLINATION": 42.9993,
    "RA_OF_ASC_NODE": 127.7059,
    "ARG_OF_PERICENTER": 291.5072,
    "MEAN_ANOMALY": 191.0291,
    "EPHEMERIS_TYPE": 0,
    "CLASSIFICATION_TYPE": "U",
    "NORAD_CAT_ID": 57996,
    "ELEMENT_SET_NO": 999,
    "REV_AT_EPOCH": 397,
    "BSTAR": 0.0015148,
    "MEAN_MOTION_DOT": 0.00391565,
    "MEAN_MOTION_DDOT": 0
  },
  {
    "OBJECT_NAME": "STARLINK-30523",
    "OBJECT_ID": "2023-153G",
    "EPOCH": "2023-10-22T14:00:01.000224",
    "MEAN_MOTION": 15.74678113,
    "ECCENTRICITY": 0.0001823,
    "INCLINATION": 42.9995,
    "RA_OF_ASC_NODE": 127.935,
    "ARG_OF_PERICENTER": 281.1806,
    "MEAN_ANOMALY": 109.7129,
    "EPHEMERIS_TYPE": 0,
    "CLASSIFICATION_TYPE": "U",
    "NORAD_CAT_ID": 57997,
    "ELEMENT_SET_NO": 999,
    "REV_AT_EPOCH": 397,
    "BSTAR": -0.0051318,
    "MEAN_MOTION_DOT": -0.00714041,
    "MEAN_MOTION_DDOT": 0
  },
  {
    "OBJECT_NAME": "STARLINK-30531",
    "OBJECT_ID": "2023-153H",
    "EPOCH": "2023-10-22T14:00:01.000224",
    "MEAN_MOTION": 15.74162672,
    "ECCENTRICITY": 0.0001584,
    "INCLINATION": 42.9996,
    "RA_OF_ASC_NODE": 127.9253,
    "ARG_OF_PERICENTER": 258.5293,
    "MEAN_ANOMALY": 136.135,
    "EPHEMERIS_TYPE": 0,
    "CLASSIFICATION_TYPE": "U",
    "NORAD_CAT_ID": 57998,
    "ELEMENT_SET_NO": 999,
    "REV_AT_EPOCH": 397,
    "BSTAR": -0.003501,
    "MEAN_MOTION_DOT": -0.00489165,
    "MEAN_MOTION_DDOT": 0
  },
  {
    "OBJECT_NAME": "STARLINK-30552",
    "OBJECT_ID": "2023-153J",
    "EPOCH": "2023-10-22T14:00:01.000224",
    "MEAN_MOTION": 15.74244473,
    "ECCENTRICITY": 0.0001389,
    "INCLINATION": 42.9998,
    "RA_OF_ASC_NODE": 127.9276,
    "ARG_OF_PERICENTER": 257.5385,
    "MEAN_ANOMALY": 136.4411,
    "EPHEMERIS_TYPE": 0,
    "CLASSIFICATION_TYPE": "U",
    "NORAD_CAT_ID": 57999,
    "ELEMENT_SET_NO": 999,
    "REV_AT_EPOCH": 397,
    "BSTAR": -0.0040368,
    "MEAN_MOTION_DOT": -0.00561177,
    "MEAN_MOTION_DDOT": 0
  },
  {
    "OBJECT_NAME": "STARLINK-30545",
    "OBJECT_ID": "2023-153K",
    "EPOCH": "2023-10-22T14:00:01.000224",
    "MEAN_MOTION": 15.74046613,
    "ECCENTRICITY": 0.0001042,
    "INCLINATION": 42.9997,
    "RA_OF_ASC_NODE": 127.9234,
    "ARG_OF_PERICENTER": 257.9333,
    "MEAN_ANOMALY": 137.423,
    "EPHEMERIS_TYPE": 0,
    "CLASSIFICATION_TYPE": "U",
    "NORAD_CAT_ID": 58000,
    "ELEMENT_SET_NO": 999,
    "REV_AT_EPOCH": 396,
    "BSTAR": -0.0024139,
    "MEAN_MOTION_DOT": -0.00341539,
    "MEAN_MOTION_DDOT": 0
  }
]
