YAOGAN-39 03B           
1 57988U 23152C   23292.23988397  .00017333  00000+0  70306-3 0  9992
2 57988  34.9971 265.3754 0005772  34.8922  93.8351 15.23756774  2168
YAOGAN-39 03C           
1 57990U 23152E   23295.31706227  .00024298  00000+0  97865-3 0  9994
2 57990  34.9962 245.9686 0007983  72.7317  54.9598 15.23927622  2606
STARLINK-30537          
1 57991U 23153A   23295.58334491 -.00701451  00000+0 -49783-2 0  9995
2 57991  42.9994 127.9396 0001696 264.1886 124.8410 15.74931443  3659
STARLINK-30534          
1 57992U 23153B   23295.58334491 -.00691168  00000+0 -48771-2 0  9995
2 57992  42.9994 127.9422 0001627 269.4331 118.6569 15.75035340  3879
STARLINK-30536          
1 57993U 23153C   23295.58334491 -.00708425  00000+0 -50585-2 0  9997
2 57993  42.9994 127.9373 0001722 268.2172 121.7519 15.74811570  3978
STARLINK-30538          
1 57994U 23153D   23295.58334491 -.00718820  00000+0 -51674-2 0  9998
2 57994  42.9996 127.9338 0001378 268.7351 122.7584 15.74689237  3878
STARLINK-30517          
1 57995U 23153E   23295.58334491 -.00727552  00000+0 -52632-2 0  9996
2 57995  42.9997 127.9315 0001568 267.1304 125.2239 15.74567949  3978
STARLINK-30543          
1 57996U 23153F   23295.58334491  .00391565  00000+0  15148-2 0  9997
2 57996  42.9993 127.7059 0005028 291.5072 191.0291 15.85401319  3975
STARLINK-30523          
1 57997U 23153G   23295.58334491 -.00714041  00000+0 -51318-2 0  9997
2 57997  42.9995 127.9350 0001823 281.1806 109.7129 15.74678113  3975
STARLINK-30531          
1 57998U 23153H   23295.58334491 -.00489165  00000+0 -35010-2 0  9995
2 57998  42.9996 127.9253 0001584 258.5293 136.1350 15.74162672  3979
STARLINK-30552          
1 57999U 23153J   23295.58334491 -.00561177  00000+0 -40368-2 0  9992
2 57999  42.9998 127.9276 0001389 257.5385 136.4411 15.74244473  3972
STARLINK-30545          
1 58000U 23153K   23295.58334491 -.00341539  00000+0 -24139-2 0  9992
2 58000  42.9997 127.9234 0001042 257.9333 137.4230 15.74046613  3967
